OBJECT_NAME,OBJECT_ID,EPOCH,MEAN_MOTION,ECCENTRICITY,INCLINATION,RA_OF_ASC_NODE,ARG_OF_PERICENTER,MEAN_ANOMALY,EPHEMERIS_TYPE,CLASSIFICATION_TYPE,NORAD_CAT_ID,ELEMENT_SET_NO,REV_AT_EPOCH,BSTAR,MEAN_MOTION_DOT,MEAN_MOTION_DDOT
STARLINK-32084,2024-136U,2024-10-05T10:25:22.597248,15.30177184,.0001413,53.1618,332.0139,66.7672,293.3477,0,U,60347,999,1117,-.13963E-4,-.772E-5,0
STARLINK-32081,2024-136V,2024-10-05T04:04:35.217120,15.30182660,.0000848,53.1608,333.2082,75.7423,284.3671,0,U,60348,999,1118,.10793E-3,.2837E-4,0
STARLINK-32181,2024-136W,2024-10-05T10:07:07.223232,15.30185838,.0001311,53.1613,331.9370,96.1560,263.9590,0,U,60349,999,1096,.1079E-3,.2836E-4,0
STARLINK-32076,2024-136X,2024-10-05T10:11:41.823168,15.30177955,.0001301,53.1607,331.9508,102.0038,258.1109,0,U,60350,999,1117,.54594E-5,-.198E-5,0
STARLINK-32097,2024-136Y,2024-10-05T03:46:20.887680,15.30186431,.0001019,53.1608,333.1264,69.5837,290.5273,0,U,60351,999,1118,.94833E-4,.2449E-4,0
STRIX-4,2024-137A,2024-10-05T02:28:39.237888,15.09517718,.0007124,43.0182,152.6964,279.5417,80.4623,0,U,60352,999,957,.21715E-2,.35397E-3,0
STARLINK-32285,2024-138A,2024-10-05T12:13:41.764224,15.39629061,.0001041,53.1597,211.6178,61.6638,298.4472,0,U,60355,999,1089,-.3372E-5,-.534E-5,0
STARLINK-32278,2024-138B,2024-10-05T12:14:10.535424,15.39620808,.0000832,53.1607,211.6105,82.5390,277.5710,0,U,60356,999,1089,-.50194E-4,-.2406E-4,0
STARLINK-32286,2024-138C,2024-10-05T17:16:20.919648,16.27734477,.0007061,53.1385,198.1900,205.4837,247.6504,0,U,60357,999,1109,.12542E-2,.4786297E-1,.11979E-4
STARLINK-32287,2024-138D,2024-10-05T03:26:47.529024,15.39575553,.000139,53.1594,213.5992,110.6900,249.4254,0,U,60358,999,1083,-.2835E-4,-.1531E-4,0
STARLINK-32290,2024-138E,2024-10-05T12:47:09.966336,15.39597156,.0001001,53.1597,211.7648,72.1244,287.9870,0,U,60359,999,1083,-.11301E-4,-.851E-5,0
STARLINK-32275,2024-138F,2024-10-05T00:59:17.190816,15.39629882,.0000866,53.1606,213.6739,78.2868,281.8234,0,U,60360,999,1082,.70026E-4,.2404E-4,0
STARLINK-32227,2024-138G,2024-10-05T01:06:26.530560,15.39630893,.0000821,53.1602,213.6914,59.4613,300.6472,0,U,60361,999,1083,.49528E-4,.1583E-4,0
STARLINK-32256,2024-138H,2024-10-05T02:46:34.297536,15.39616910,.0000342,53.1608,213.4184,150.9482,209.1542,0,U,60362,999,1083,-.14795E-3,-.6311E-4,0
STARLINK-32267,2024-138J,2024-10-05T02:33:16.140384,15.39615142,.00008,53.1611,213.3669,81.9383,278.1713,0,U,60363,999,1083,-.59898E-4,-.2793E-4,0
STARLINK-32270,2024-138K,2024-10-05T12:27:32.890752,15.39617951,.0001053,53.1607,211.6795,101.3377,258.7746,0,U,60364,999,1077,.55057E-4,.1803E-4,0
STARLINK-32188,2024-138L,2024-10-05T02:39:27.273312,15.39621936,.000094,53.1612,213.3944,80.0915,280.0196,0,U,60365,999,1083,.43771E-4,.1352E-4,0
STARLINK-32230,2024-138M,2024-10-05T12:33:47.115072,15.39606223,.0001456,53.1606,211.7048,77.9215,282.1953,0,U,60366,999,1089,.58674E-4,.1947E-4,0
STARLINK-32243,2024-138N,2024-10-05T13:07:06.370464,15.39586377,.0000821,53.1609,211.1367,106.2350,253.8745,0,U,60367,999,1047,-.22558E-3,-.94E-4,0
STARLINK-32271,2024-138P,2024-10-05T12:40:29.828064,15.39588441,.0001937,53.1596,211.7303,87.2349,272.8877,0,U,60368,999,1089,-.83519E-4,-.3735E-4,0
STARLINK-32266,2024-138Q,2024-10-04T22:00:00.999936,15.76570385,.000079,53.1509,206.1702,121.8263,316.8964,0,U,60369,999,584,-.39573E-2,-.600313E-2,0
STARLINK-32220,2024-138R,2024-10-05T05:26:20.777568,15.39636017,.0000876,53.1599,212.6961,120.8101,239.2990,0,U,60370,999,1085,.3907E-4,.1165E-4,0
STARLINK-32263,2024-138S,2024-10-05T04:33:28.295712,15.39620422,.0000777,53.1591,213.1771,78.4675,281.6417,0,U,60371,999,1063,-.28495E-4,-.1538E-4,0
STARLINK-32268,2024-138T,2024-10-05T12:40:57.198720,15.39605263,.0000872,53.1599,211.7365,86.3932,273.7173,0,U,60372,999,1089,-.56014E-4,-.2637E-4,0
STARLINK-32223,2024-138U,2024-10-05T14:00:01.999872,15.39656641,.0000925,53.1585,211.2176,65.5893,9.7692,0,U,60373,999,1084,-.26295E-2,-.104274E-2,0
STARLINK-32180,2024-138V,2024-10-05T13:07:30.690336,15.39635203,.0000853,53.1598,211.1381,99.0369,261.0732,0,U,60374,999,1090,.65123E-4,.2208E-4,0
STARLINK-32281,2024-138W,2024-10-05T04:46:49.406880,15.39636428,.000095,53.1596,213.2329,119.7068,240.4032,0,U,60375,999,1056,.93484E-4,.3344E-4,0
STARLINK-32277,2024-138X,2024-10-05T05:33:30.927744,15.39627549,.0000654,53.1615,212.7253,55.4121,304.6945,0,U,60376,999,1085,-.78952E-5,-.715E-5,0
STARLINK-32269,2024-138Y,2024-10-05T13:00:53.874144,15.39581003,.000139,53.1606,211.1072,91.3781,268.7383,0,U,60377,999,1090,-.2329E-3,-.9691E-4,0
