60347,STARLINK-32084,2024,94.11,-1.0,+,53.16,Active,0,LEO,USA,USA,Unknown,Unknown,Unknown,1 60347U 24136U   24279.43428932 -.00000772  00000+0 -13963-4 0  9998,2 60347  53.1618 332.0139 0001413  66.7672 293.3477 15.30177184 11172,15.30177184,0.0001413,LEO
60348,STARLINK-32081,2024,94.1,-1.0,+,53.16,Active,0,LEO,USA,USA,Unknown,Unknown,Unknown,1 60348U 24136V   24279.16985205  .00002837  00000+0  10793-3 0  9999,2 60348  53.1608 333.2082 0000848  75.7423 284.3671 15.30182660 11189,15.3018266,8.48e-05,LEO
60349,STARLINK-32181,2024,94.11,-1.0,+,53.16,Active,0,LEO,USA,USA,Unknown,Unknown,Unknown,1 60349U 24136W   24279.42161138  .00002836  00000+0  10790-3 0  9996,2 60349  53.1613 331.9370 0001311  96.1560 263.9590 15.30185838 10964,15.30185838,0.0001311,LEO
60350,STARLINK-32076,2024,94.11,-1.0,+,53.16,Active,0,LEO,USA,USA,Unknown,Unknown,Unknown,1 60350U 24136X   24279.42478962 -.00000198  00000+0  54594-5 0  9996,2 60350  53.1607 331.9508 0001301 102.0038 258.1109 15.30177955 11175,15.30177955,0.0001301,LEO
60351,STARLINK-32097,2024,94.11,-1.0,+,53.16,Active,0,LEO,USA,USA,Unknown,Unknown,Unknown,1 60351U 24136Y   24279.15718620  .00002449  00000+0  94833-4 0  9994,2 60351  53.1608 333.1264 0001019  69.5837 290.5273 15.30186431 11182,15.30186431,0.0001019,LEO
60352,STRIX-4,2024,95.4,-1.0,+,43.02,Active,0,LEO,New Zealand,Japan,Unknown,Unknown,Unknown,1 60352U 24137A   24279.10323192  .00035397  00000+0  21715-2 0  9992,2 60352  43.0182 152.6964 0007124 279.5417  80.4623 15.09517718  9576,15.09517718,0.0007124,LEO
60355,STARLINK-32285,2024,93.53,-1.0,+,53.16,Active,0,LEO,USA,USA,Unknown,Unknown,Unknown,1 60355U 24138A   24279.50951116 -.00000534  00000+0 -33720-5 0  9992,2 60355  53.1597 211.6178 0001041  61.6638 298.4472 15.39629061 10899,15.39629061,0.0001041,LEO
60356,STARLINK-32278,2024,93.53,-1.0,+,53.16,Active,0,LEO,USA,USA,Unknown,Unknown,Unknown,1 60356U 24138B   24279.50984416 -.00002406  00000+0 -50194-4 0  9995,2 60356  53.1607 211.6105 0000832  82.5390 277.5710 15.39620808 10899,15.39620808,8.32e-05,LEO
60357,STARLINK-32286,2024,89.07,-1.0,P,53.15,Active,0,LEO,USA,USA,Unknown,Unknown,Unknown,1 60357U 24138C   24279.71968657  .04786297  11979-4  12542-2 0  9992,2 60357  53.1385 198.1900 0007061 205.4837 247.6504 16.27734477 11096,16.27734477,0.0007061,LEO
60358,STARLINK-32287,2024,93.53,-1.0,+,53.16,Active,0,LEO,USA,USA,Unknown,Unknown,Unknown,1 60358U 24138D   24279.14360566 -.00001531  00000+0 -28350-4 0  9998,2 60358  53.1594 213.5992 0001390 110.6900 249.4254 15.39575553 10832,15.39575553,0.000139,LEO
60359,STARLINK-32290,2024,93.53,-1.0,+,53.16,Active,0,LEO,USA,USA,Unknown,Unknown,Unknown,1 60359U 24138E   24279.53275424 -.00000851  00000+0 -11301-4 0  9992,2 60359  53.1597 211.7648 0001001  72.1244 287.9870 15.39597156 10830,15.39597156,0.0001001,LEO
60360,STARLINK-32275,2024,93.53,-1.0,+,53.16,Active,0,LEO,USA,USA,Unknown,Unknown,Unknown,1 60360U 24138F   24279.04117119  .00002404  00000+0  70026-4 0  9999,2 60360  53.1606 213.6739 0000866  78.2868 281.8234 15.39629882 10820,15.39629882,8.66e-05,LEO
60361,STARLINK-32227,2024,93.53,-1.0,+,53.16,Active,0,LEO,USA,USA,Unknown,Unknown,Unknown,1 60361U 24138G   24279.04614040  .00001583  00000+0  49528-4 0  9995,2 60361  53.1602 213.6914 0000821  59.4613 300.6472 15.39630893 10831,15.39630893,8.21e-05,LEO
60362,STARLINK-32256,2024,93.42,-1.0,+,53.16,Active,0,LEO,USA,USA,Unknown,Unknown,Unknown,1 60362U 24138H   24279.11567474 -.00006311  00000+0 -14795-3 0  9995,2 60362  53.1608 213.4184 0000342 150.9482 209.1542 15.39616910 10839,15.3961691,3.42e-05,LEO
60363,STARLINK-32267,2024,93.53,-1.0,+,53.16,Active,0,LEO,USA,USA,Unknown,Unknown,Unknown,1 60363U 24138J   24279.10643681 -.00002793  00000+0 -59898-4 0  9994,2 60363  53.1611 213.3669 0000800  81.9383 278.1713 15.39615142 10835,15.39615142,8e-05,LEO
60364,STARLINK-32270,2024,93.53,-1.0,+,53.16,Active,0,LEO,USA,USA,Unknown,Unknown,Unknown,1 60364U 24138K   24279.51913068  .00001803  00000+0  55057-4 0  9991,2 60364  53.1607 211.6795 0001053 101.3377 258.7746 15.39617951 10776,15.39617951,0.0001053,LEO
60365,STARLINK-32188,2024,93.53,-1.0,+,53.16,Active,0,LEO,USA,USA,Unknown,Unknown,Unknown,1 60365U 24138L   24279.11073233  .00001352  00000+0  43771-4 0  9998,2 60365  53.1612 213.3944 0000940  80.0915 280.0196 15.39621936 10835,15.39621936,9.4e-05,LEO
60366,STARLINK-32230,2024,93.53,-1.0,+,53.16,Active,0,LEO,USA,USA,Unknown,Unknown,Unknown,1 60366U 24138M   24279.52346198  .00001947  00000+0  58674-4 0  9995,2 60366  53.1606 211.7048 0001456  77.9215 282.1953 15.39606223 10899,15.39606223,0.0001456,LEO
60367,STARLINK-32243,2024,93.53,-1.0,+,53.16,Active,0,LEO,USA,USA,Unknown,Unknown,Unknown,1 60367U 24138N   24279.54660151 -.00009400  00000+0 -22558-3 0  9991,2 60367  53.1609 211.1367 0000821 106.2350 253.8745 15.39586377 10477,15.39586377,8.21e-05,LEO
60368,STARLINK-32271,2024,93.53,-1.0,+,53.16,Active,0,LEO,USA,USA,Unknown,Unknown,Unknown,1 60368U 24138P   24279.52812301 -.00003735  00000+0 -83519-4 0  9996,2 60368  53.1596 211.7303 0001937  87.2349 272.8877 15.39588441 10891,15.39588441,0.0001937,LEO
60369,STARLINK-32266,2024,91.31,-1.0,P,53.15,Active,0,LEO,USA,USA,Unknown,Unknown,Unknown,1 60369U 24138Q   24278.91667824 -.00600313  00000+0 -39573-2 0  9991,2 60369  53.1509 206.1702 0000790 121.8263 316.8964 15.76570385  5847,15.76570385,7.9e-05,LEO
60370,STARLINK-32220,2024,93.53,-1.0,+,53.16,Active,0,LEO,USA,USA,Unknown,Unknown,Unknown,1 60370U 24138R   24279.22662937  .00001165  00000+0  39070-4 0  9990,2 60370  53.1599 212.6961 0000876 120.8101 239.2990 15.39636017 10850,15.39636017,8.76e-05,LEO
60371,STARLINK-32263,2024,93.53,-1.0,+,53.16,Active,0,LEO,USA,USA,Unknown,Unknown,Unknown,1 60371U 24138S   24279.18991083 -.00001538  00000+0 -28495-4 0  9998,2 60371  53.1591 213.1771 0000777  78.4675 281.6417 15.39620422 10636,15.39620422,7.77e-05,LEO
60372,STARLINK-32268,2024,93.53,-1.0,+,53.16,Active,0,LEO,USA,USA,Unknown,Unknown,Unknown,1 60372U 24138T   24279.52843980 -.00002637  00000+0 -56014-4 0  9998,2 60372  53.1599 211.7365 0000872  86.3932 273.7173 15.39605263 10893,15.39605263,8.72e-05,LEO
60373,STARLINK-32223,2024,93.53,-1.0,+,53.16,Active,0,LEO,USA,USA,Unknown,Unknown,Unknown,1 60373U 24138U   24279.58335648 -.00104274  00000+0 -26295-2 0  9998,2 60373  53.1585 211.2176 0000925  65.5893   9.7692 15.39656641 10842,15.39656641,9.25e-05,LEO
60374,STARLINK-32180,2024,93.53,-1.0,+,53.16,Active,0,LEO,USA,USA,Unknown,Unknown,Unknown,1 60374U 24138V   24279.54688299  .00002208  00000+0  65123-4 0  9995,2 60374  53.1598 211.1381 0000853  99.0369 261.0732 15.39635203 10900,15.39635203,8.53e-05,LEO
60375,STARLINK-32281,2024,93.53,-1.0,+,53.16,Active,0,LEO,USA,USA,Unknown,Unknown,Unknown,1 60375U 24138W   24279.19918295  .00003344  00000+0  93484-4 0  9992,2 60375  53.1596 213.2329 0000950 119.7068 240.4032 15.39636428 10564,15.39636428,9.5e-05,LEO
60376,STARLINK-32277,2024,93.53,-1.0,+,53.16,Active,0,LEO,USA,USA,Unknown,Unknown,Unknown,1 60376U 24138X   24279.23160796 -.00000715  00000+0 -78952-5 0  9998,2 60376  53.1615 212.7253 0000654  55.4121 304.6945 15.39627549 10856,15.39627549,6.54e-05,LEO
60377,STARLINK-32269,2024,93.53,-1.0,+,53.16,Active,0,LEO,USA,USA,Unknown,Unknown,Unknown,1 60377U 24138Y   24279.54229021 -.00009691  00000+0 -23290-3 0  9995,2 60377  53.1606 211.1072 0001390  91.3781 268.7383 15.39581003 10904,15.39581003,0.000139,LEO
